{"type": "FeatureCollection", "features": [ {"type": "Feature", "properties": {"norad_id": 66656, "name": "2025-274G", "group": "last-30-days", "lat": -7.968970839407745, "lon": -72.44398754837168, "alt_km": 601.7312658574456, "timestamp": "2025-12-25T11:37:43.132270+00:00", "meta": {"OBJECT_NAME": "2025-274G", "OBJECT_ID": "2025-274G", "EPOCH": "2025-12-24T17:57:48.297888", "MEAN_MOTION": 14.92341607, "ECCENTRICITY": 0.00129127, "INCLINATION": 97.7403, "RA_OF_ASC_NODE": 285.7417, "ARG_OF_PERICENTER": 212.4848, "MEAN_ANOMALY": 147.5578, "EPHEMERIS_TYPE": 0, "CLASSIFICATION_TYPE": "U", "NORAD_CAT_ID": 66656, "ELEMENT_SET_NO": 999, "REV_AT_EPOCH": 419, "BSTAR": 0.00034127557, "MEAN_MOTION_DOT": 3.438e-05, "MEAN_MOTION_DDOT": 0}, "tle": {"line1": "1 66656U 25274G   25358.74847567  .00003438  00000+0  34128-3 0  9998", "line2": "2 66656  97.7403 285.7417 0012912 212.4848 147.5578 14.92341607  4197"}}, "geometry": {"type": "Point", "coordinates": [-72.44398754837168, -7.968970839407745]}}, {"type": "Feature", "properties": {"norad_id": 66657, "name": "SPIRONE", "group": "last-30-days", "lat": 10.379723575880423, "lon": -74.95543865075894, "alt_km": 597.7333266889846, "timestamp": "2025-12-25T11:37:43.132284+00:00", "meta": {"OBJECT_NAME": "SPIRONE", "OBJECT_ID": "2025-274H", "EPOCH": "2025-12-24T17:52:57.460800", "MEAN_MOTION": 14.92519691, "ECCENTRICITY": 0.00109277, "INCLINATION": 97.74, "RA_OF_ASC_NODE": 285.7453, "ARG_OF_PERICENTER": 230.1139, "MEAN_ANOMALY": 129.912, "EPHEMERIS_TYPE": 0, "CLASSIFICATION_TYPE": "U", "NORAD_CAT_ID": 66657, "ELEMENT_SET_NO": 999, "REV_AT_EPOCH": 419, "BSTAR": 0.00033156122, "MEAN_MOTION_DOT": 3.352e-05, "MEAN_MOTION_DDOT": 0}, "tle": {"line1": "1 66657U 25274H   25358.74510950  .00003352  00000+0  33156-3 0  9997", "line2": "2 66657  97.7400 285.7453 0010927 230.1139 129.9120 14.92519691  4196"}}, "geometry": {"type": "Point", "coordinates": [-74.95543865075894, 10.379723575880423]}}, {"type": "Feature", "properties": {"norad_id": 66658, "name": "2025-274J", "group": "last-30-days", "lat": 28.091080054526685, "lon": -77.68283486519431, "alt_km": 595.7206822927774, "timestamp": "2025-12-25T11:37:43.132298+00:00", "meta": {"OBJECT_NAME": "2025-274J", "OBJECT_ID": "2025-274J", "EPOCH": "2025-12-25T01:50:55.690944", "MEAN_MOTION": 14.92701249, "ECCENTRICITY": 0.0011467, "INCLINATION": 97.7399, "RA_OF_ASC_NODE": 286.0795, "ARG_OF_PERICENTER": 232.0814, "MEAN_ANOMALY": 127.937, "EPHEMERIS_TYPE": 0, "CLASSIFICATION_TYPE": "U", "NORAD_CAT_ID": 66658, "ELEMENT_SET_NO": 999, "REV_AT_EPOCH": 424, "BSTAR": 0.00048848, "MEAN_MOTION_DOT": 4.99e-05, "MEAN_MOTION_DDOT": 0}, "tle": {"line1": "1 66658U 25274J   25359.07703346  .00004990  00000+0  48848-3 0  9991", "line2": "2 66658  97.7399 286.0795 0011467 232.0814 127.9370 14.92701249  4241"}}, "geometry": {"type": "Point", "coordinates": [-77.68283486519431, 28.091080054526685]}}, {"type": "Feature", "properties": {"norad_id": 66659, "name": "JACK K", "group": "last-30-days", "lat": 46.892335005777355, "lon": -81.86623898721166, "alt_km": 593.3381887774012, "timestamp": "2025-12-25T11:37:43.132308+00:00", "meta": {"OBJECT_NAME": "JACK K", "OBJECT_ID": "2025-274K", "EPOCH": "2025-12-25T01:45:52.394976", "MEAN_MOTION": 14.92874399, "ECCENTRICITY": 0.0012202, "INCLINATION": 97.7402, "RA_OF_ASC_NODE": 286.0846, "ARG_OF_PERICENTER": 234.1016, "MEAN_ANOMALY": 125.9071, "EPHEMERIS_TYPE": 0, "CLASSIFICATION_TYPE": "U", "NORAD_CAT_ID": 66659, "ELEMENT_SET_NO": 999, "REV_AT_EPOCH": 424, "BSTAR": 0.00031178, "MEAN_MOTION_DOT": 3.178e-05, "MEAN_MOTION_DDOT": 0}, "tle": {"line1": "1 66659U 25274K   25359.07352309  .00003178  00000+0  31178-3 0  9996", "line2": "2 66659  97.7402 286.0846 0012202 234.1016 125.9071 14.92874399  4242"}}, "geometry": {"type": "Point", "coordinates": [-81.86623898721166, 46.892335005777355]}}, {"type": "Feature", "properties": {"norad_id": 66660, "name": "K-HERO", "group": "last-30-days", "lat": 61.99899436634342, "lon": -88.32392718219651, "alt_km": 591.2950126309142, "timestamp": "2025-12-25T11:37:43.132318+00:00", "meta": {"OBJECT_NAME": "K-HERO", "OBJECT_ID": "2025-274L", "EPOCH": "2025-12-24T19:15:43.592832", "MEAN_MOTION": 14.93023583, "ECCENTRICITY": 0.00128231, "INCLINATION": 97.7403, "RA_OF_ASC_NODE": 285.8259, "ARG_OF_PERICENTER": 235.9448, "MEAN_ANOMALY": 124.0555, "EPHEMERIS_TYPE": 0, "CLASSIFICATION_TYPE": "U", "NORAD_CAT_ID": 66660, "ELEMENT_SET_NO": 999, "REV_AT_EPOCH": 420, "BSTAR": 0.00029020754, "MEAN_MOTION_DOT": 2.966e-05, "MEAN_MOTION_DDOT": 0}, "tle": {"line1": "1 66660U 25274L   25358.80258788  .00002966  00000+0  29021-3 0  9992", "line2": "2 66660  97.7403 285.8259 0012823 235.9448 124.0555 14.93023583  4202"}}, "geometry": {"type": "Point", "coordinates": [-88.32392718219651, 61.99899436634342]}}, {"type": "Feature", "properties": {"norad_id": 66661, "name": "SNUGLITE-III", "group": "last-30-days", "lat": 75.56530738651118, "lon": -105.39510047146723, "alt_km": 589.5709831063341, "timestamp": "2025-12-25T11:37:43.132328+00:00", "meta": {"OBJECT_NAME": "SNUGLITE-III", "OBJECT_ID": "2025-274M", "EPOCH": "2025-12-25T01:37:50.867904", "MEAN_MOTION": 14.93157451, "ECCENTRICITY": 0.0013452, "INCLINATION": 97.7401, "RA_OF_ASC_NODE": 286.0923, "ARG_OF_PERICENTER": 236.4373, "MEAN_ANOMALY": 123.5562, "EPHEMERIS_TYPE": 0, "CLASSIFICATION_TYPE": "U", "NORAD_CAT_ID": 66661, "ELEMENT_SET_NO": 999, "REV_AT_EPOCH": 424, "BSTAR": 0.00026838, "MEAN_MOTION_DOT": 2.748e-05, "MEAN_MOTION_DDOT": 0}, "tle": {"line1": "1 66661U 25274M   25359.06794986  .00002748  00000+0  26838-3 0  9998", "line2": "2 66661  97.7401 286.0923 0013452 236.4373 123.5562 14.93157451  4242"}}, "geometry": {"type": "Point", "coordinates": [-105.39510047146723, 75.56530738651118]}}, {"type": "Feature", "properties": {"norad_id": 66662, "name": "2025-274N", "group": "last-30-days", "lat": 79.9931103019499, "lon": -123.9235914814136, "alt_km": 589.0055211159333, "timestamp": "2025-12-25T11:37:43.132338+00:00", "meta": {"OBJECT_NAME": "2025-274N", "OBJECT_ID": "2025-274N", "EPOCH": "2025-12-25T03:12:47.542176", "MEAN_MOTION": 14.93214188, "ECCENTRICITY": 0.0013897, "INCLINATION": 97.7403, "RA_OF_ASC_NODE": 286.1601, "ARG_OF_PERICENTER": 235.9397, "MEAN_ANOMALY": 124.0504, "EPHEMERIS_TYPE": 0, "CLASSIFICATION_TYPE": "U", "NORAD_CAT_ID": 66662, "ELEMENT_SET_NO": 999, "REV_AT_EPOCH": 425, "BSTAR": 0.00028551, "MEAN_MOTION_DOT": 2.932e-05, "MEAN_MOTION_DDOT": 0}, "tle": {"line1": "1 66662U 25274N   25359.13388359  .00002932  00000+0  28551-3 0  9999", "line2": "2 66662  97.7403 286.1601 0013897 235.9397 124.0504 14.93214188  4256"}}, "geometry": {"type": "Point", "coordinates": [-123.9235914814136, 79.9931103019499]}}, {"type": "Feature", "properties": {"norad_id": 66663, "name": "KSLV-II R/B", "group": "last-30-days", "lat": 19.322347252170477, "lon": 109.44555059503347, "alt_km": 591.918836909128, "timestamp": "2025-12-25T11:37:43.132348+00:00", "meta": {"OBJECT_NAME": "KSLV-II R/B", "OBJECT_ID": "2025-274P", "EPOCH": "2025-12-23T05:59:25.426176", "MEAN_MOTION": 14.97536982, "ECCENTRICITY": 0.00600006, "INCLINATION": 97.7435, "RA_OF_ASC_NODE": 284.4956, "ARG_OF_PERICENTER": 282.7951, "MEAN_ANOMALY": 76.657, "EPHEMERIS_TYPE": 0, "CLASSIFICATION_TYPE": "U", "NORAD_CAT_ID": 66663, "ELEMENT_SET_NO": 999, "REV_AT_EPOCH": 398, "BSTAR": 0.0011394408, "MEAN_MOTION_DOT": 0.00013749, "MEAN_MOTION_DDOT": 0}, "tle": {"line1": "1 66663U 25274P   25357.24959984  .00013749  00000+0  11394-2 0  9992", "line2": "2 66663  97.7435 284.4956 0060000 282.7951  76.6570 14.97536982  3987"}}, "geometry": {"type": "Point", "coordinates": [109.44555059503347, 19.322347252170477]}}, {"type": "Feature", "properties": {"norad_id": 66664, "name": "SOYUZ-MS 28", "group": "last-30-days", "lat": -49.70374983299089, "lon": -31.52151506431286, "alt_km": 420.2407708488645, "timestamp": "2025-12-25T11:37:43.132358+00:00", "meta": {"OBJECT_NAME": "SOYUZ-MS 28", "OBJECT_ID": "2025-275A", "EPOCH": "2025-12-24T17:30:08.449344", "MEAN_MOTION": 15.49788781, "ECCENTRICITY": 0.0003193, "INCLINATION": 51.6316, "RA_OF_ASC_NODE": 83.1022, "ARG_OF_PERICENTER": 296.2044, "MEAN_ANOMALY": 63.8616, "EPHEMERIS_TYPE": 0, "CLASSIFICATION_TYPE": "U", "NORAD_CAT_ID": 66664, "ELEMENT_SET_NO": 999, "REV_AT_EPOCH": 430, "BSTAR": 0.00024881, "MEAN_MOTION_DOT": 0.00013665, "MEAN_MOTION_DDOT": 0}, "tle": {"line1": "1 66664U 25275A   25358.72926446  .00013665  00000+0  24881-3 0  9998", "line2": "2 66664  51.6316  83.1022 0003193 296.2044  63.8616 15.49788781  4306"}}, "geometry": {"type": "Point", "coordinates": [-31.52151506431286, -49.70374983299089]}}, {"type": "Feature", "properties": {"norad_id": 66666, "name": "FORMOSAT-8A", "group": "last-30-days", "lat": -80.66997161156198, "lon": 126.21370417658412, "alt_km": 573.145590412757, "timestamp": "2025-12-25T11:37:43.132370+00:00", "meta": {"OBJECT_NAME": "FORMOSAT-8A", "OBJECT_ID": "2025-276A", "EPOCH": "2025-12-25T02:24:07.399296", "MEAN_MOTION": 15.00359683, "ECCENTRICITY": 0.0004018, "INCLINATION": 97.6575, "RA_OF_ASC_NODE": 70.8595, "ARG_OF_PERICENTER": 186.3646, "MEAN_ANOMALY": 173.7527, "EPHEMERIS_TYPE": 0, "CLASSIFICATION_TYPE": "U", "NORAD_CAT_ID": 66666, "ELEMENT_SET_NO": 999, "REV_AT_EPOCH": 394, "BSTAR": 0.00040887, "MEAN_MOTION_DOT": 5.075e-05, "MEAN_MOTION_DDOT": 0}, "tle": {"line1": "1 66666U 25276A   25359.10008564  .00005075  00000+0  40887-3 0  9996", "line2": "2 66666  97.6575  70.8595 0004018 186.3646 173.7527 15.00359683  3940"}}, "geometry": {"type": "Point", "coordinates": [126.21370417658412, -80.66997161156198]}}]}